OBJECT_NAME,OBJECT_ID,EPOCH,MEAN_MOTION,ECCENTRICITY,INCLINATION,RA_OF_ASC_NODE,ARG_OF_PERICENTER,MEAN_ANOMALY,EPHEMERIS_TYPE,CLASSIFICATION_TYPE,NORAD_CAT_ID,ELEMENT_SET_NO,REV_AT_EPOCH,BSTAR,MEAN_MOTION_DOT,MEAN_MOTION_DDOT
CZ-8A R/B,2025-231K,2026-07-09T14:54:56.259072,14.30161155,.0116507,50.0053,303.8718,302.9977,55.9785,0,U,66004,999,3815,.42065E-4,-.46E-6,0
SZ-21 MODULE,2025-246C,2026-07-09T15:05:05.609760,15.78399650,.0006956,41.4700,167.3519,182.2034,177.8782,0,U,66515,999,3728,.21899E-3,.38903E-3,0
SPACEMOBILE-006,2025-309A,2026-07-08T04:03:30.389472,15.18644437,.00106305,52.9947,235.5229,192.2291,167.8446,0,U,67232,999,2978,.24444343E-4,.19E-5,0
SPACEMOBILE-008,2026-139A,2026-07-09T06:33:07.087680,15.12796930,.00047468,52.9939,162.2948,42.3763,317.7594,0,U,69589,999,332,.43934622E-4,.479E-5,0
SPACEMOBILE-009,2026-139B,2026-07-08T22:39:38.121408,15.12689610,.00049803,52.9929,163.7993,36.9056,323.2277,0,U,69590,999,327,.42785832E-4,.456E-5,0
SPACEMOBILE-010,2026-139C,2026-07-09T14:34:37.931808,15.12521494,.0004902,52.9935,160.8181,29.8087,330.3182,0,U,69591,999,338,.33614E-4,.292E-5,0
